<?xml version="1.0" encoding="UTF-8"?>
<osm version="0.6" generator="fogofwalk-trail-fixture">
  <node id="1" lat="50.0800" lon="14.4000" />
  <node id="2" lat="50.0900" lon="14.4200" />
  <node id="3" lat="50.0800" lon="14.4400" />
  <node id="4" lat="50.1000" lon="14.4000" />
  <node id="5" lat="50.1100" lon="14.4200" />
  <node id="6" lat="50.1000" lon="14.4400" />
  <node id="7" lat="50.0600" lon="14.4000" />
  <node id="8" lat="50.0700" lon="14.4200" />
  <node id="9" lat="50.0600" lon="14.4400" />
  <node id="10" lat="50.1200" lon="14.4000" />
  <node id="11" lat="50.1300" lon="14.4200" />
  <node id="12" lat="50.1200" lon="14.4400" />
  <node id="13" lat="50.0400" lon="14.4000" />
  <node id="14" lat="50.0500" lon="14.4200" />
  <node id="15" lat="50.0400" lon="14.4400" />
  <node id="16" lat="50.1400" lon="14.4000" />
  <node id="17" lat="50.1500" lon="14.4200" />
  <node id="18" lat="50.1400" lon="14.4400" />
  <node id="19" lat="50.1600" lon="14.4000" />
  <node id="20" lat="50.1700" lon="14.4200" />
  <node id="21" lat="50.1600" lon="14.4400" />
  <node id="22" lat="50.1800" lon="14.4000" />
  <node id="23" lat="50.1900" lon="14.4200" />
  <node id="24" lat="50.1800" lon="14.4400" />

  <way id="101"><nd ref="1"/><nd ref="2"/><nd ref="3"/></way>
  <way id="102"><nd ref="4"/><nd ref="5"/><nd ref="6"/></way>
  <way id="103"><nd ref="7"/><nd ref="8"/><nd ref="9"/></way>
  <way id="104"><nd ref="10"/><nd ref="11"/><nd ref="12"/></way>
  <way id="105"><nd ref="13"/><nd ref="14"/><nd ref="15"/></way>
  <way id="106"><nd ref="16"/><nd ref="17"/><nd ref="18"/></way>
  <way id="107"><nd ref="19"/><nd ref="20"/><nd ref="21"/></way>
  <way id="108"><nd ref="22"/><nd ref="23"/><nd ref="24"/></way>

  <relation id="1001">
    <tag k="type" v="route"/><tag k="route" v="hiking"/><tag k="network" v="nwn"/>
    <tag k="osmc:symbol" v="red:white:red_bar"/><member type="way" ref="101" role="forward"/>
  </relation>
  <relation id="1002">
    <tag k="type" v="route"/><tag k="route" v="bicycle"/><tag k="network" v="ncn"/>
    <member type="way" ref="101" role=""/>
  </relation>
  <relation id="1003">
    <tag k="type" v="route"/><tag k="route" v="foot"/><tag k="network" v="lwn"/>
    <tag k="colour" v="green"/><member type="way" ref="102" role="backward"/>
  </relation>
  <relation id="1004">
    <tag k="type" v="route"/><tag k="route" v="hiking"/><tag k="network" v="rwn"/>
    <tag k="osmc:symbol" v="::"/><member type="way" ref="103" role=""/>
  </relation>
  <relation id="1005">
    <tag k="type" v="route"/><tag k="route" v="hiking"/><tag k="network" v="lwn"/>
    <tag k="colour" v="white"/><member type="way" ref="104" role=""/>
  </relation>
  <relation id="1006">
    <tag k="type" v="route"/><tag k="route" v="mtb"/><member type="way" ref="105" role=""/>
  </relation>

  <relation id="1010"><tag k="type" v="route"/><tag k="route" v="hiking"/><tag k="network" v="lwn"/><tag k="colour" v="red"/><member type="way" ref="106" role=""/></relation>
  <relation id="1011"><tag k="type" v="route"/><tag k="route" v="hiking"/><tag k="network" v="lwn"/><tag k="colour" v="green"/><member type="way" ref="106" role=""/></relation>
  <relation id="1012"><tag k="type" v="route"/><tag k="route" v="hiking"/><tag k="network" v="lwn"/><tag k="colour" v="blue"/><member type="way" ref="106" role=""/></relation>
  <relation id="1013"><tag k="type" v="route"/><tag k="route" v="hiking"/><tag k="network" v="lwn"/><tag k="colour" v="yellow"/><member type="way" ref="106" role=""/></relation>
  <relation id="1014"><tag k="type" v="route"/><tag k="route" v="hiking"/><tag k="network" v="lwn"/><tag k="colour" v="orange"/><member type="way" ref="106" role=""/></relation>

  <relation id="1100">
    <tag k="type" v="superroute"/><tag k="route" v="hiking"/><tag k="network" v="iwn"/>
    <tag k="osmc:symbol" v="brown:white:bar"/><member type="relation" ref="1003" role=""/>
  </relation>
  <relation id="1200">
    <tag k="type" v="superroute"/><tag k="route" v="hiking"/><tag k="network" v="nwn"/>
    <tag k="colour" v="purple"/><member type="relation" ref="1201" role=""/>
  </relation>
  <relation id="1201">
    <tag k="type" v="superroute"/><tag k="route" v="hiking"/><tag k="network" v="rwn"/>
    <tag k="colour" v="purple"/><member type="relation" ref="1200" role=""/>
  </relation>
  <relation id="1300">
    <tag k="type" v="route"/><tag k="route" v="hiking"/><tag k="network" v="rwn"/>
    <member type="node" ref="1" role="guidepost"/><member type="way" ref="999999" role=""/>
  </relation>
</osm>
