<?xml version="1.0" encoding="UTF-8"?>
<gpx version="1.1" creator="Apple Health Export" xmlns="http://www.topografix.com/GPX/1/1" xmlns:xsi="http://www.w3.org/2001/XMLSchema-instance" xsi:schemaLocation="http://www.topografix.com/GPX/1/1 http://www.topografix.com/GPX/1/1/gpx.xsd">
  <metadata>
    <desc>Extract from a real Apple Health export, relocated to a neutral origin and re-based to a fixed start time. Kept for the GPS artefact it contains; the surrounding geometry is genuine recorded movement. A lost fix places three points 6680 km away before the track resumes 1.5 km further along.</desc>
  </metadata>
  <trk>
    <name>excursion-across-the-globe</name>
    <trkseg>
      <trkpt lon="13.400000" lat="52.500000"><ele>133.2</ele><time>2024-01-01T08:00:00.000Z</time></trkpt>
      <trkpt lon="13.400025" lat="52.499993"><ele>133.0</ele><time>2024-01-01T08:00:01.000Z</time></trkpt>
      <trkpt lon="13.400052" lat="52.499998"><ele>134.1</ele><time>2024-01-01T08:00:02.000Z</time></trkpt>
      <trkpt lon="13.400078" lat="52.499993"><ele>134.7</ele><time>2024-01-01T08:00:03.000Z</time></trkpt>
      <trkpt lon="13.400104" lat="52.499992"><ele>134.7</ele><time>2024-01-01T08:00:04.000Z</time></trkpt>
      <trkpt lon="13.400131" lat="52.499989"><ele>134.8</ele><time>2024-01-01T08:00:05.000Z</time></trkpt>
      <trkpt lon="13.400156" lat="52.499985"><ele>134.6</ele><time>2024-01-01T08:00:06.000Z</time></trkpt>
      <trkpt lon="13.400184" lat="52.499984"><ele>134.2</ele><time>2024-01-01T08:00:07.000Z</time></trkpt>
      <trkpt lon="13.400213" lat="52.499984"><ele>134.1</ele><time>2024-01-01T08:00:08.000Z</time></trkpt>
      <trkpt lon="13.400244" lat="52.499984"><ele>134.4</ele><time>2024-01-01T08:00:09.000Z</time></trkpt>
      <trkpt lon="13.400270" lat="52.499993"><ele>135.5</ele><time>2024-01-01T08:00:10.000Z</time></trkpt>
      <trkpt lon="13.400296" lat="52.499992"><ele>135.9</ele><time>2024-01-01T08:00:11.000Z</time></trkpt>
      <trkpt lon="13.400320" lat="52.499990"><ele>135.6</ele><time>2024-01-01T08:00:12.000Z</time></trkpt>
      <trkpt lon="13.400342" lat="52.499988"><ele>136.4</ele><time>2024-01-01T08:00:13.000Z</time></trkpt>
      <trkpt lon="13.400367" lat="52.499983"><ele>136.3</ele><time>2024-01-01T08:00:14.000Z</time></trkpt>
      <trkpt lon="13.400393" lat="52.499981"><ele>135.9</ele><time>2024-01-01T08:00:15.000Z</time></trkpt>
      <trkpt lon="13.400421" lat="52.499986"><ele>135.6</ele><time>2024-01-01T08:00:16.000Z</time></trkpt>
      <trkpt lon="13.400447" lat="52.499984"><ele>135.2</ele><time>2024-01-01T08:00:17.000Z</time></trkpt>
      <trkpt lon="13.400473" lat="52.499981"><ele>134.4</ele><time>2024-01-01T08:00:18.000Z</time></trkpt>
      <trkpt lon="13.400500" lat="52.499975"><ele>134.7</ele><time>2024-01-01T08:00:19.000Z</time></trkpt>
      <trkpt lon="13.400527" lat="52.499970"><ele>134.9</ele><time>2024-01-01T08:00:20.000Z</time></trkpt>
      <trkpt lon="13.400556" lat="52.499975"><ele>135.4</ele><time>2024-01-01T08:00:21.000Z</time></trkpt>
      <trkpt lon="13.400581" lat="52.499974"><ele>136.1</ele><time>2024-01-01T08:00:22.000Z</time></trkpt>
      <trkpt lon="13.400606" lat="52.499972"><ele>136.3</ele><time>2024-01-01T08:00:23.000Z</time></trkpt>
      <trkpt lon="13.400631" lat="52.499973"><ele>136.8</ele><time>2024-01-01T08:00:24.000Z</time></trkpt>
      <trkpt lon="13.400656" lat="52.499973"><ele>136.8</ele><time>2024-01-01T08:00:25.000Z</time></trkpt>
      <trkpt lon="13.400683" lat="52.499974"><ele>136.1</ele><time>2024-01-01T08:00:26.000Z</time></trkpt>
      <trkpt lon="13.400718" lat="52.499964"><ele>136.1</ele><time>2024-01-01T08:00:27.000Z</time></trkpt>
      <trkpt lon="13.400770" lat="52.499953"><ele>136.4</ele><time>2024-01-01T08:00:28.000Z</time></trkpt>
      <trkpt lon="13.400770" lat="52.499966"><ele>136.2</ele><time>2024-01-01T08:00:29.000Z</time></trkpt>
      <trkpt lon="13.400795" lat="52.499979"><ele>136.0</ele><time>2024-01-01T08:00:30.000Z</time></trkpt>
      <trkpt lon="13.400820" lat="52.499987"><ele>135.9</ele><time>2024-01-01T08:00:31.000Z</time></trkpt>
      <trkpt lon="13.400842" lat="52.499998"><ele>136.1</ele><time>2024-01-01T08:00:32.000Z</time></trkpt>
      <trkpt lon="13.400866" lat="52.500002"><ele>136.0</ele><time>2024-01-01T08:00:33.000Z</time></trkpt>
      <trkpt lon="13.400889" lat="52.500003"><ele>136.6</ele><time>2024-01-01T08:00:34.000Z</time></trkpt>
      <trkpt lon="13.400912" lat="52.500009"><ele>137.2</ele><time>2024-01-01T08:00:35.000Z</time></trkpt>
      <trkpt lon="13.400938" lat="52.500010"><ele>137.0</ele><time>2024-01-01T08:00:36.000Z</time></trkpt>
      <trkpt lon="13.400961" lat="52.500018"><ele>136.4</ele><time>2024-01-01T08:00:37.000Z</time></trkpt>
      <trkpt lon="13.400983" lat="52.500027"><ele>137.3</ele><time>2024-01-01T08:00:38.000Z</time></trkpt>
      <trkpt lon="13.401005" lat="52.500033"><ele>137.4</ele><time>2024-01-01T08:00:39.000Z</time></trkpt>
      <trkpt lon="13.401028" lat="52.500040"><ele>137.4</ele><time>2024-01-01T08:00:40.000Z</time></trkpt>
      <trkpt lon="13.401050" lat="52.500048"><ele>138.1</ele><time>2024-01-01T08:00:41.000Z</time></trkpt>
      <trkpt lon="13.401072" lat="52.500046"><ele>138.4</ele><time>2024-01-01T08:00:42.000Z</time></trkpt>
      <trkpt lon="13.401099" lat="52.500041"><ele>137.0</ele><time>2024-01-01T08:00:43.000Z</time></trkpt>
      <trkpt lon="13.401123" lat="52.500045"><ele>135.9</ele><time>2024-01-01T08:00:44.000Z</time></trkpt>
      <trkpt lon="13.401154" lat="52.500042"><ele>135.5</ele><time>2024-01-01T08:00:45.000Z</time></trkpt>
      <trkpt lon="13.401184" lat="52.500051"><ele>135.5</ele><time>2024-01-01T08:00:46.000Z</time></trkpt>
      <trkpt lon="13.401206" lat="52.500058"><ele>136.5</ele><time>2024-01-01T08:00:47.000Z</time></trkpt>
      <trkpt lon="13.401232" lat="52.500058"><ele>136.8</ele><time>2024-01-01T08:00:48.000Z</time></trkpt>
      <trkpt lon="13.401258" lat="52.500055"><ele>136.7</ele><time>2024-01-01T08:00:49.000Z</time></trkpt>
      <trkpt lon="13.401283" lat="52.500058"><ele>136.0</ele><time>2024-01-01T08:00:50.000Z</time></trkpt>
      <trkpt lon="13.401310" lat="52.500058"><ele>134.8</ele><time>2024-01-01T08:00:51.000Z</time></trkpt>
      <trkpt lon="13.401335" lat="52.500062"><ele>135.0</ele><time>2024-01-01T08:00:52.000Z</time></trkpt>
      <trkpt lon="13.401362" lat="52.500063"><ele>134.9</ele><time>2024-01-01T08:00:53.000Z</time></trkpt>
      <trkpt lon="13.401387" lat="52.500068"><ele>134.9</ele><time>2024-01-01T08:00:54.000Z</time></trkpt>
      <trkpt lon="13.401411" lat="52.500075"><ele>135.0</ele><time>2024-01-01T08:00:55.000Z</time></trkpt>
      <trkpt lon="13.401435" lat="52.500081"><ele>134.4</ele><time>2024-01-01T08:00:56.000Z</time></trkpt>
      <trkpt lon="13.401461" lat="52.500082"><ele>134.3</ele><time>2024-01-01T08:00:57.000Z</time></trkpt>
      <trkpt lon="13.401490" lat="52.500088"><ele>134.5</ele><time>2024-01-01T08:00:58.000Z</time></trkpt>
      <trkpt lon="13.401516" lat="52.500093"><ele>134.5</ele><time>2024-01-01T08:00:59.000Z</time></trkpt>
      <trkpt lon="13.401536" lat="52.500102"><ele>134.1</ele><time>2024-01-01T08:01:00.000Z</time></trkpt>
      <trkpt lon="13.401560" lat="52.500106"><ele>133.4</ele><time>2024-01-01T08:01:01.000Z</time></trkpt>
      <trkpt lon="13.401590" lat="52.500101"><ele>133.8</ele><time>2024-01-01T08:01:02.000Z</time></trkpt>
      <trkpt lon="13.401619" lat="52.500092"><ele>133.6</ele><time>2024-01-01T08:01:03.000Z</time></trkpt>
      <trkpt lon="13.401645" lat="52.500091"><ele>133.6</ele><time>2024-01-01T08:01:04.000Z</time></trkpt>
      <trkpt lon="13.401674" lat="52.500097"><ele>133.3</ele><time>2024-01-01T08:01:05.000Z</time></trkpt>
      <trkpt lon="13.401695" lat="52.500115"><ele>133.3</ele><time>2024-01-01T08:01:06.000Z</time></trkpt>
      <trkpt lon="13.401719" lat="52.500114"><ele>134.2</ele><time>2024-01-01T08:01:07.000Z</time></trkpt>
      <trkpt lon="13.401743" lat="52.500111"><ele>134.3</ele><time>2024-01-01T08:01:08.000Z</time></trkpt>
      <trkpt lon="13.401765" lat="52.500115"><ele>134.7</ele><time>2024-01-01T08:01:09.000Z</time></trkpt>
      <trkpt lon="13.401787" lat="52.500118"><ele>134.6</ele><time>2024-01-01T08:01:10.000Z</time></trkpt>
      <trkpt lon="13.401813" lat="52.500119"><ele>134.4</ele><time>2024-01-01T08:01:11.000Z</time></trkpt>
      <trkpt lon="13.401841" lat="52.500117"><ele>134.2</ele><time>2024-01-01T08:01:12.000Z</time></trkpt>
      <trkpt lon="13.401864" lat="52.500124"><ele>134.8</ele><time>2024-01-01T08:01:13.000Z</time></trkpt>
      <trkpt lon="13.401890" lat="52.500123"><ele>134.8</ele><time>2024-01-01T08:01:14.000Z</time></trkpt>
      <trkpt lon="13.401915" lat="52.500128"><ele>134.8</ele><time>2024-01-01T08:01:15.000Z</time></trkpt>
      <trkpt lon="13.401938" lat="52.500132"><ele>135.2</ele><time>2024-01-01T08:01:16.000Z</time></trkpt>
      <trkpt lon="13.401958" lat="52.500132"><ele>135.1</ele><time>2024-01-01T08:01:17.000Z</time></trkpt>
      <trkpt lon="13.401982" lat="52.500135"><ele>135.8</ele><time>2024-01-01T08:01:18.000Z</time></trkpt>
      <trkpt lon="13.402007" lat="52.500143"><ele>135.8</ele><time>2024-01-01T08:01:19.000Z</time></trkpt>
      <trkpt lon="13.402033" lat="52.500135"><ele>135.5</ele><time>2024-01-01T08:01:20.000Z</time></trkpt>
      <trkpt lon="13.402059" lat="52.500139"><ele>135.8</ele><time>2024-01-01T08:01:21.000Z</time></trkpt>
      <trkpt lon="13.402081" lat="52.500135"><ele>136.0</ele><time>2024-01-01T08:01:22.000Z</time></trkpt>
      <trkpt lon="13.402104" lat="52.500147"><ele>136.5</ele><time>2024-01-01T08:01:23.000Z</time></trkpt>
      <trkpt lon="13.402126" lat="52.500151"><ele>136.9</ele><time>2024-01-01T08:01:24.000Z</time></trkpt>
      <trkpt lon="13.402151" lat="52.500158"><ele>136.9</ele><time>2024-01-01T08:01:25.000Z</time></trkpt>
      <trkpt lon="13.402176" lat="52.500157"><ele>136.6</ele><time>2024-01-01T08:01:26.000Z</time></trkpt>
      <trkpt lon="13.402197" lat="52.500155"><ele>136.7</ele><time>2024-01-01T08:01:27.000Z</time></trkpt>
      <trkpt lon="13.402221" lat="52.500159"><ele>137.2</ele><time>2024-01-01T08:01:28.000Z</time></trkpt>
      <trkpt lon="13.402243" lat="52.500161"><ele>137.7</ele><time>2024-01-01T08:01:29.000Z</time></trkpt>
      <trkpt lon="13.402266" lat="52.500161"><ele>138.1</ele><time>2024-01-01T08:01:30.000Z</time></trkpt>
      <trkpt lon="13.402286" lat="52.500169"><ele>138.4</ele><time>2024-01-01T08:01:31.000Z</time></trkpt>
      <trkpt lon="13.402311" lat="52.500160"><ele>137.4</ele><time>2024-01-01T08:01:32.000Z</time></trkpt>
      <trkpt lon="13.402337" lat="52.500162"><ele>138.5</ele><time>2024-01-01T08:01:33.000Z</time></trkpt>
      <trkpt lon="13.402359" lat="52.500166"><ele>139.5</ele><time>2024-01-01T08:01:34.000Z</time></trkpt>
      <trkpt lon="13.402384" lat="52.500168"><ele>139.3</ele><time>2024-01-01T08:01:35.000Z</time></trkpt>
      <trkpt lon="13.402409" lat="52.500177"><ele>139.4</ele><time>2024-01-01T08:01:36.000Z</time></trkpt>
      <trkpt lon="13.402435" lat="52.500182"><ele>139.3</ele><time>2024-01-01T08:01:37.000Z</time></trkpt>
      <trkpt lon="13.402454" lat="52.500197"><ele>140.1</ele><time>2024-01-01T08:01:38.000Z</time></trkpt>
      <trkpt lon="13.402477" lat="52.500201"><ele>140.1</ele><time>2024-01-01T08:01:39.000Z</time></trkpt>
      <trkpt lon="13.402497" lat="52.500212"><ele>140.0</ele><time>2024-01-01T08:01:40.000Z</time></trkpt>
      <trkpt lon="13.402523" lat="52.500211"><ele>140.3</ele><time>2024-01-01T08:01:41.000Z</time></trkpt>
      <trkpt lon="13.402549" lat="52.500212"><ele>141.0</ele><time>2024-01-01T08:01:42.000Z</time></trkpt>
      <trkpt lon="13.402576" lat="52.500205"><ele>140.8</ele><time>2024-01-01T08:01:43.000Z</time></trkpt>
      <trkpt lon="13.402605" lat="52.500193"><ele>139.5</ele><time>2024-01-01T08:01:44.000Z</time></trkpt>
      <trkpt lon="13.402631" lat="52.500179"><ele>139.3</ele><time>2024-01-01T08:01:45.000Z</time></trkpt>
      <trkpt lon="13.402651" lat="52.500181"><ele>138.7</ele><time>2024-01-01T08:01:46.000Z</time></trkpt>
      <trkpt lon="13.402682" lat="52.500181"><ele>137.7</ele><time>2024-01-01T08:01:47.000Z</time></trkpt>
      <trkpt lon="13.402708" lat="52.500195"><ele>137.0</ele><time>2024-01-01T08:01:48.000Z</time></trkpt>
      <trkpt lon="13.402737" lat="52.500209"><ele>140.9</ele><time>2024-01-01T08:01:49.000Z</time></trkpt>
      <trkpt lon="13.402761" lat="52.500206"><ele>140.5</ele><time>2024-01-01T08:01:50.000Z</time></trkpt>
      <trkpt lon="13.402790" lat="52.500206"><ele>140.4</ele><time>2024-01-01T08:01:51.000Z</time></trkpt>
      <trkpt lon="13.402814" lat="52.500200"><ele>139.7</ele><time>2024-01-01T08:01:52.000Z</time></trkpt>
      <trkpt lon="13.402837" lat="52.500197"><ele>138.9</ele><time>2024-01-01T08:01:53.000Z</time></trkpt>
      <trkpt lon="13.402868" lat="52.500200"><ele>139.2</ele><time>2024-01-01T08:01:54.000Z</time></trkpt>
      <trkpt lon="13.402899" lat="52.500201"><ele>139.1</ele><time>2024-01-01T08:01:55.000Z</time></trkpt>
      <trkpt lon="13.402928" lat="52.500194"><ele>139.5</ele><time>2024-01-01T08:01:56.000Z</time></trkpt>
      <trkpt lon="13.402958" lat="52.500206"><ele>138.2</ele><time>2024-01-01T08:01:57.000Z</time></trkpt>
      <trkpt lon="13.402981" lat="52.500181"><ele>136.8</ele><time>2024-01-01T08:01:58.000Z</time></trkpt>
      <trkpt lon="13.403003" lat="52.500153"><ele>135.0</ele><time>2024-01-01T08:01:59.000Z</time></trkpt>
      <trkpt lon="13.403028" lat="52.500136"><ele>135.0</ele><time>2024-01-01T08:02:00.000Z</time></trkpt>
      <trkpt lon="13.403048" lat="52.500120"><ele>134.6</ele><time>2024-01-01T08:02:01.000Z</time></trkpt>
      <trkpt lon="13.403073" lat="52.500112"><ele>135.4</ele><time>2024-01-01T08:02:02.000Z</time></trkpt>
      <trkpt lon="13.403092" lat="52.500100"><ele>137.2</ele><time>2024-01-01T08:02:03.000Z</time></trkpt>
      <trkpt lon="13.403124" lat="52.500107"><ele>137.8</ele><time>2024-01-01T08:02:04.000Z</time></trkpt>
      <trkpt lon="13.403150" lat="52.500125"><ele>138.2</ele><time>2024-01-01T08:02:05.000Z</time></trkpt>
      <trkpt lon="13.403174" lat="52.500128"><ele>136.5</ele><time>2024-01-01T08:02:06.000Z</time></trkpt>
      <trkpt lon="13.403197" lat="52.500122"><ele>137.1</ele><time>2024-01-01T08:02:07.000Z</time></trkpt>
      <trkpt lon="13.403220" lat="52.500120"><ele>138.0</ele><time>2024-01-01T08:02:08.000Z</time></trkpt>
      <trkpt lon="13.403247" lat="52.500139"><ele>138.7</ele><time>2024-01-01T08:02:09.000Z</time></trkpt>
      <trkpt lon="13.403274" lat="52.500147"><ele>139.2</ele><time>2024-01-01T08:02:10.000Z</time></trkpt>
      <trkpt lon="13.403299" lat="52.500160"><ele>139.4</ele><time>2024-01-01T08:02:11.000Z</time></trkpt>
      <trkpt lon="13.403332" lat="52.500178"><ele>139.0</ele><time>2024-01-01T08:02:12.000Z</time></trkpt>
      <trkpt lon="13.403356" lat="52.500194"><ele>137.3</ele><time>2024-01-01T08:02:13.000Z</time></trkpt>
      <trkpt lon="13.403373" lat="52.500191"><ele>135.7</ele><time>2024-01-01T08:02:14.000Z</time></trkpt>
      <trkpt lon="13.403400" lat="52.500197"><ele>136.0</ele><time>2024-01-01T08:02:15.000Z</time></trkpt>
      <trkpt lon="13.403427" lat="52.500204"><ele>136.5</ele><time>2024-01-01T08:02:16.000Z</time></trkpt>
      <trkpt lon="13.403448" lat="52.500208"><ele>136.2</ele><time>2024-01-01T08:02:17.000Z</time></trkpt>
      <trkpt lon="13.403472" lat="52.500214"><ele>136.0</ele><time>2024-01-01T08:02:18.000Z</time></trkpt>
      <trkpt lon="13.403498" lat="52.500217"><ele>137.3</ele><time>2024-01-01T08:02:19.000Z</time></trkpt>
      <trkpt lon="13.403521" lat="52.500220"><ele>138.0</ele><time>2024-01-01T08:02:20.000Z</time></trkpt>
      <trkpt lon="13.403543" lat="52.500222"><ele>139.5</ele><time>2024-01-01T08:02:21.000Z</time></trkpt>
      <trkpt lon="13.403568" lat="52.500221"><ele>139.3</ele><time>2024-01-01T08:02:22.000Z</time></trkpt>
      <trkpt lon="13.403594" lat="52.500221"><ele>140.2</ele><time>2024-01-01T08:02:23.000Z</time></trkpt>
      <trkpt lon="13.403581" lat="52.500222"><ele>143.2</ele><time>2024-01-01T08:02:24.000Z</time></trkpt>
      <trkpt lon="13.403604" lat="52.500267"><ele>143.7</ele><time>2024-01-01T08:02:25.000Z</time></trkpt>
      <trkpt lon="13.403608" lat="52.500256"><ele>141.6</ele><time>2024-01-01T08:02:26.000Z</time></trkpt>
      <trkpt lon="13.403602" lat="52.500277"><ele>139.8</ele><time>2024-01-01T08:02:27.000Z</time></trkpt>
      <trkpt lon="13.403609" lat="52.500308"><ele>140.5</ele><time>2024-01-01T08:02:28.000Z</time></trkpt>
      <trkpt lon="13.403656" lat="52.500299"><ele>139.4</ele><time>2024-01-01T08:02:29.000Z</time></trkpt>
      <trkpt lon="13.403691" lat="52.500292"><ele>140.9</ele><time>2024-01-01T08:02:30.000Z</time></trkpt>
      <trkpt lon="13.403720" lat="52.500286"><ele>140.3</ele><time>2024-01-01T08:02:31.000Z</time></trkpt>
      <trkpt lon="13.403737" lat="52.500295"><ele>141.3</ele><time>2024-01-01T08:02:32.000Z</time></trkpt>
      <trkpt lon="13.403750" lat="52.500294"><ele>142.7</ele><time>2024-01-01T08:02:33.000Z</time></trkpt>
      <trkpt lon="13.403777" lat="52.500298"><ele>142.3</ele><time>2024-01-01T08:02:34.000Z</time></trkpt>
      <trkpt lon="13.403802" lat="52.500295"><ele>143.9</ele><time>2024-01-01T08:02:35.000Z</time></trkpt>
      <trkpt lon="13.403834" lat="52.500294"><ele>142.3</ele><time>2024-01-01T08:02:36.000Z</time></trkpt>
      <trkpt lon="13.403858" lat="52.500289"><ele>143.6</ele><time>2024-01-01T08:02:37.000Z</time></trkpt>
      <trkpt lon="13.403884" lat="52.500290"><ele>141.4</ele><time>2024-01-01T08:02:38.000Z</time></trkpt>
      <trkpt lon="13.403908" lat="52.500292"><ele>142.4</ele><time>2024-01-01T08:02:39.000Z</time></trkpt>
      <trkpt lon="13.403933" lat="52.500301"><ele>142.4</ele><time>2024-01-01T08:02:40.000Z</time></trkpt>
      <trkpt lon="13.403957" lat="52.500303"><ele>143.3</ele><time>2024-01-01T08:02:41.000Z</time></trkpt>
      <trkpt lon="13.403983" lat="52.500300"><ele>142.6</ele><time>2024-01-01T08:02:42.000Z</time></trkpt>
      <trkpt lon="13.404007" lat="52.500297"><ele>142.2</ele><time>2024-01-01T08:02:43.000Z</time></trkpt>
      <trkpt lon="13.404028" lat="52.500294"><ele>142.4</ele><time>2024-01-01T08:02:44.000Z</time></trkpt>
      <trkpt lon="13.404040" lat="52.500307"><ele>142.4</ele><time>2024-01-01T08:02:45.000Z</time></trkpt>
      <trkpt lon="13.404061" lat="52.500311"><ele>142.6</ele><time>2024-01-01T08:02:46.000Z</time></trkpt>
      <trkpt lon="13.404090" lat="52.500314"><ele>141.0</ele><time>2024-01-01T08:02:47.000Z</time></trkpt>
      <trkpt lon="13.404115" lat="52.500316"><ele>141.2</ele><time>2024-01-01T08:02:48.000Z</time></trkpt>
      <trkpt lon="13.404150" lat="52.500316"><ele>141.0</ele><time>2024-01-01T08:02:49.000Z</time></trkpt>
      <trkpt lon="13.404179" lat="52.500319"><ele>141.8</ele><time>2024-01-01T08:02:50.000Z</time></trkpt>
      <trkpt lon="13.404209" lat="52.500320"><ele>141.9</ele><time>2024-01-01T08:02:51.000Z</time></trkpt>
      <trkpt lon="13.404235" lat="52.500321"><ele>142.7</ele><time>2024-01-01T08:02:52.000Z</time></trkpt>
      <trkpt lon="13.404266" lat="52.500314"><ele>143.3</ele><time>2024-01-01T08:02:53.000Z</time></trkpt>
      <trkpt lon="13.404309" lat="52.500292"><ele>143.8</ele><time>2024-01-01T08:02:54.000Z</time></trkpt>
      <trkpt lon="13.404349" lat="52.500268"><ele>142.3</ele><time>2024-01-01T08:02:55.000Z</time></trkpt>
      <trkpt lon="13.404392" lat="52.500244"><ele>141.8</ele><time>2024-01-01T08:02:56.000Z</time></trkpt>
      <trkpt lon="13.404412" lat="52.500227"><ele>141.8</ele><time>2024-01-01T08:02:57.000Z</time></trkpt>
      <trkpt lon="13.404433" lat="52.500221"><ele>140.4</ele><time>2024-01-01T08:02:58.000Z</time></trkpt>
      <trkpt lon="13.404455" lat="52.500219"><ele>140.5</ele><time>2024-01-01T08:02:59.000Z</time></trkpt>
      <trkpt lon="13.404477" lat="52.500218"><ele>141.2</ele><time>2024-01-01T08:03:00.000Z</time></trkpt>
      <trkpt lon="13.404500" lat="52.500214"><ele>141.4</ele><time>2024-01-01T08:03:01.000Z</time></trkpt>
      <trkpt lon="13.404521" lat="52.500211"><ele>141.1</ele><time>2024-01-01T08:03:02.000Z</time></trkpt>
      <trkpt lon="13.404540" lat="52.500209"><ele>141.8</ele><time>2024-01-01T08:03:03.000Z</time></trkpt>
      <trkpt lon="13.404650" lat="52.500178"><ele>142.1</ele><time>2024-01-01T08:03:04.000Z</time></trkpt>
      <trkpt lon="13.404661" lat="52.500209"><ele>141.6</ele><time>2024-01-01T08:03:05.000Z</time></trkpt>
      <trkpt lon="13.404665" lat="52.500200"><ele>140.9</ele><time>2024-01-01T08:03:06.000Z</time></trkpt>
      <trkpt lon="13.404689" lat="52.500199"><ele>141.2</ele><time>2024-01-01T08:03:07.000Z</time></trkpt>
      <trkpt lon="13.404705" lat="52.500205"><ele>142.0</ele><time>2024-01-01T08:03:08.000Z</time></trkpt>
      <trkpt lon="13.404729" lat="52.500215"><ele>140.4</ele><time>2024-01-01T08:03:09.000Z</time></trkpt>
      <trkpt lon="13.404751" lat="52.500220"><ele>140.5</ele><time>2024-01-01T08:03:10.000Z</time></trkpt>
      <trkpt lon="13.404773" lat="52.500225"><ele>140.3</ele><time>2024-01-01T08:03:11.000Z</time></trkpt>
      <trkpt lon="13.405077" lat="52.500185"><ele>142.9</ele><time>2024-01-01T08:03:24.000Z</time></trkpt>
      <trkpt lon="13.405077" lat="52.500185"><ele>142.9</ele><time>2024-01-01T08:03:25.000Z</time></trkpt>
      <trkpt lon="13.405077" lat="52.500185"><ele>142.9</ele><time>2024-01-01T08:03:26.000Z</time></trkpt>
      <trkpt lon="13.405077" lat="52.500185"><ele>142.9</ele><time>2024-01-01T08:03:27.000Z</time></trkpt>
      <trkpt lon="13.405077" lat="52.500185"><ele>142.9</ele><time>2024-01-01T08:03:28.000Z</time></trkpt>
      <trkpt lon="13.405078" lat="52.500186"><ele>143.0</ele><time>2024-01-01T08:03:29.000Z</time></trkpt>
      <trkpt lon="13.405134" lat="52.500192"><ele>140.0</ele><time>2024-01-01T08:03:37.000Z</time></trkpt>
      <trkpt lon="13.405135" lat="52.500193"><ele>140.7</ele><time>2024-01-01T08:03:38.000Z</time></trkpt>
      <trkpt lon="13.405139" lat="52.500194"><ele>139.6</ele><time>2024-01-01T08:03:39.000Z</time></trkpt>
      <trkpt lon="22.887679" lat="-6.990763"><ele>15992.2</ele><time>2024-01-01T08:19:57.000Z</time></trkpt>
      <trkpt lon="22.888829" lat="-6.991567"><ele>16012.2</ele><time>2024-01-01T08:19:58.000Z</time></trkpt>
      <trkpt lon="22.858508" lat="-6.949833"><ele>18273.8</ele><time>2024-01-01T08:20:01.000Z</time></trkpt>
      <trkpt lon="13.413931" lat="52.512117"><ele>139.2</ele><time>2024-01-01T08:23:22.000Z</time></trkpt>
      <trkpt lon="13.413931" lat="52.512210"><ele>143.7</ele><time>2024-01-01T08:23:23.000Z</time></trkpt>
      <trkpt lon="13.413938" lat="52.512216"><ele>142.9</ele><time>2024-01-01T08:23:25.000Z</time></trkpt>
      <trkpt lon="13.413909" lat="52.512225"><ele>141.8</ele><time>2024-01-01T08:23:26.000Z</time></trkpt>
      <trkpt lon="13.413888" lat="52.512256"><ele>141.7</ele><time>2024-01-01T08:23:27.000Z</time></trkpt>
      <trkpt lon="13.413883" lat="52.512277"><ele>142.5</ele><time>2024-01-01T08:23:28.000Z</time></trkpt>
      <trkpt lon="13.413881" lat="52.512298"><ele>141.6</ele><time>2024-01-01T08:23:29.000Z</time></trkpt>
      <trkpt lon="13.413875" lat="52.512308"><ele>139.3</ele><time>2024-01-01T08:23:30.000Z</time></trkpt>
      <trkpt lon="13.413875" lat="52.512320"><ele>139.1</ele><time>2024-01-01T08:23:31.000Z</time></trkpt>
      <trkpt lon="13.413876" lat="52.512345"><ele>138.6</ele><time>2024-01-01T08:23:32.000Z</time></trkpt>
      <trkpt lon="13.413869" lat="52.512364"><ele>138.6</ele><time>2024-01-01T08:23:33.000Z</time></trkpt>
      <trkpt lon="13.413873" lat="52.512382"><ele>138.4</ele><time>2024-01-01T08:23:34.000Z</time></trkpt>
      <trkpt lon="13.413863" lat="52.512401"><ele>138.8</ele><time>2024-01-01T08:23:35.000Z</time></trkpt>
      <trkpt lon="13.413862" lat="52.512421"><ele>139.3</ele><time>2024-01-01T08:23:36.000Z</time></trkpt>
      <trkpt lon="13.413866" lat="52.512435"><ele>139.2</ele><time>2024-01-01T08:23:37.000Z</time></trkpt>
      <trkpt lon="13.413871" lat="52.512445"><ele>140.2</ele><time>2024-01-01T08:23:38.000Z</time></trkpt>
      <trkpt lon="13.413877" lat="52.512457"><ele>139.4</ele><time>2024-01-01T08:23:39.000Z</time></trkpt>
      <trkpt lon="13.413911" lat="52.512465"><ele>139.2</ele><time>2024-01-01T08:23:40.000Z</time></trkpt>
      <trkpt lon="13.413912" lat="52.512469"><ele>138.1</ele><time>2024-01-01T08:23:41.000Z</time></trkpt>
      <trkpt lon="13.413903" lat="52.512464"><ele>136.4</ele><time>2024-01-01T08:23:42.000Z</time></trkpt>
      <trkpt lon="13.413891" lat="52.512463"><ele>136.3</ele><time>2024-01-01T08:23:43.000Z</time></trkpt>
      <trkpt lon="13.413887" lat="52.512475"><ele>136.0</ele><time>2024-01-01T08:23:44.000Z</time></trkpt>
      <trkpt lon="13.413890" lat="52.512490"><ele>135.9</ele><time>2024-01-01T08:23:45.000Z</time></trkpt>
      <trkpt lon="13.413890" lat="52.512503"><ele>136.8</ele><time>2024-01-01T08:23:46.000Z</time></trkpt>
      <trkpt lon="13.413878" lat="52.512515"><ele>137.8</ele><time>2024-01-01T08:23:47.000Z</time></trkpt>
      <trkpt lon="13.413875" lat="52.512528"><ele>138.1</ele><time>2024-01-01T08:23:48.000Z</time></trkpt>
      <trkpt lon="13.413873" lat="52.512539"><ele>139.0</ele><time>2024-01-01T08:23:49.000Z</time></trkpt>
      <trkpt lon="13.413861" lat="52.512551"><ele>139.1</ele><time>2024-01-01T08:23:50.000Z</time></trkpt>
      <trkpt lon="13.413845" lat="52.512563"><ele>138.9</ele><time>2024-01-01T08:23:51.000Z</time></trkpt>
      <trkpt lon="13.413838" lat="52.512575"><ele>138.8</ele><time>2024-01-01T08:23:52.000Z</time></trkpt>
      <trkpt lon="13.413828" lat="52.512587"><ele>138.9</ele><time>2024-01-01T08:23:53.000Z</time></trkpt>
      <trkpt lon="13.413828" lat="52.512601"><ele>139.0</ele><time>2024-01-01T08:23:54.000Z</time></trkpt>
      <trkpt lon="13.413824" lat="52.512614"><ele>139.4</ele><time>2024-01-01T08:23:55.000Z</time></trkpt>
      <trkpt lon="13.413819" lat="52.512626"><ele>139.2</ele><time>2024-01-01T08:23:56.000Z</time></trkpt>
      <trkpt lon="13.413822" lat="52.512643"><ele>139.3</ele><time>2024-01-01T08:23:57.000Z</time></trkpt>
      <trkpt lon="13.413821" lat="52.512655"><ele>139.0</ele><time>2024-01-01T08:23:58.000Z</time></trkpt>
      <trkpt lon="13.413819" lat="52.512671"><ele>139.7</ele><time>2024-01-01T08:23:59.000Z</time></trkpt>
      <trkpt lon="13.413821" lat="52.512686"><ele>139.2</ele><time>2024-01-01T08:24:00.000Z</time></trkpt>
      <trkpt lon="13.413816" lat="52.512701"><ele>139.3</ele><time>2024-01-01T08:24:01.000Z</time></trkpt>
      <trkpt lon="13.413813" lat="52.512714"><ele>139.1</ele><time>2024-01-01T08:24:02.000Z</time></trkpt>
      <trkpt lon="13.413809" lat="52.512727"><ele>139.7</ele><time>2024-01-01T08:24:03.000Z</time></trkpt>
      <trkpt lon="13.413807" lat="52.512741"><ele>139.8</ele><time>2024-01-01T08:24:04.000Z</time></trkpt>
      <trkpt lon="13.413799" lat="52.512754"><ele>140.2</ele><time>2024-01-01T08:24:05.000Z</time></trkpt>
      <trkpt lon="13.413799" lat="52.512768"><ele>140.2</ele><time>2024-01-01T08:24:06.000Z</time></trkpt>
      <trkpt lon="13.413797" lat="52.512783"><ele>140.2</ele><time>2024-01-01T08:24:07.000Z</time></trkpt>
      <trkpt lon="13.413796" lat="52.512800"><ele>139.8</ele><time>2024-01-01T08:24:08.000Z</time></trkpt>
      <trkpt lon="13.413794" lat="52.512816"><ele>139.2</ele><time>2024-01-01T08:24:09.000Z</time></trkpt>
      <trkpt lon="13.413790" lat="52.512830"><ele>138.9</ele><time>2024-01-01T08:24:10.000Z</time></trkpt>
      <trkpt lon="13.413789" lat="52.512843"><ele>138.7</ele><time>2024-01-01T08:24:11.000Z</time></trkpt>
      <trkpt lon="13.413788" lat="52.512857"><ele>138.5</ele><time>2024-01-01T08:24:12.000Z</time></trkpt>
      <trkpt lon="13.413786" lat="52.512873"><ele>138.9</ele><time>2024-01-01T08:24:13.000Z</time></trkpt>
      <trkpt lon="13.413780" lat="52.512887"><ele>138.9</ele><time>2024-01-01T08:24:14.000Z</time></trkpt>
      <trkpt lon="13.413775" lat="52.512902"><ele>138.4</ele><time>2024-01-01T08:24:15.000Z</time></trkpt>
      <trkpt lon="13.413770" lat="52.512916"><ele>139.0</ele><time>2024-01-01T08:24:16.000Z</time></trkpt>
      <trkpt lon="13.413766" lat="52.512930"><ele>139.4</ele><time>2024-01-01T08:24:17.000Z</time></trkpt>
      <trkpt lon="13.413761" lat="52.512943"><ele>139.2</ele><time>2024-01-01T08:24:18.000Z</time></trkpt>
      <trkpt lon="13.413752" lat="52.512956"><ele>139.5</ele><time>2024-01-01T08:24:19.000Z</time></trkpt>
      <trkpt lon="13.413750" lat="52.512971"><ele>139.3</ele><time>2024-01-01T08:24:20.000Z</time></trkpt>
      <trkpt lon="13.413743" lat="52.512987"><ele>139.4</ele><time>2024-01-01T08:24:21.000Z</time></trkpt>
      <trkpt lon="13.413735" lat="52.513001"><ele>140.0</ele><time>2024-01-01T08:24:22.000Z</time></trkpt>
      <trkpt lon="13.413730" lat="52.513014"><ele>140.6</ele><time>2024-01-01T08:24:23.000Z</time></trkpt>
      <trkpt lon="13.413726" lat="52.513032"><ele>140.1</ele><time>2024-01-01T08:24:24.000Z</time></trkpt>
      <trkpt lon="13.413725" lat="52.513046"><ele>140.0</ele><time>2024-01-01T08:24:25.000Z</time></trkpt>
      <trkpt lon="13.413722" lat="52.513060"><ele>139.8</ele><time>2024-01-01T08:24:26.000Z</time></trkpt>
      <trkpt lon="13.413718" lat="52.513074"><ele>139.7</ele><time>2024-01-01T08:24:27.000Z</time></trkpt>
      <trkpt lon="13.413717" lat="52.513092"><ele>139.4</ele><time>2024-01-01T08:24:28.000Z</time></trkpt>
      <trkpt lon="13.413715" lat="52.513108"><ele>139.4</ele><time>2024-01-01T08:24:29.000Z</time></trkpt>
      <trkpt lon="13.413730" lat="52.513130"><ele>138.0</ele><time>2024-01-01T08:24:30.000Z</time></trkpt>
      <trkpt lon="13.413743" lat="52.513152"><ele>138.1</ele><time>2024-01-01T08:24:31.000Z</time></trkpt>
      <trkpt lon="13.413744" lat="52.513170"><ele>137.7</ele><time>2024-01-01T08:24:32.000Z</time></trkpt>
      <trkpt lon="13.413726" lat="52.513185"><ele>137.6</ele><time>2024-01-01T08:24:33.000Z</time></trkpt>
      <trkpt lon="13.413710" lat="52.513195"><ele>137.6</ele><time>2024-01-01T08:24:34.000Z</time></trkpt>
      <trkpt lon="13.413708" lat="52.513211"><ele>137.7</ele><time>2024-01-01T08:24:35.000Z</time></trkpt>
      <trkpt lon="13.413713" lat="52.513225"><ele>137.7</ele><time>2024-01-01T08:24:36.000Z</time></trkpt>
      <trkpt lon="13.413720" lat="52.513235"><ele>138.3</ele><time>2024-01-01T08:24:37.000Z</time></trkpt>
      <trkpt lon="13.413712" lat="52.513246"><ele>138.2</ele><time>2024-01-01T08:24:38.000Z</time></trkpt>
      <trkpt lon="13.413699" lat="52.513261"><ele>137.3</ele><time>2024-01-01T08:24:39.000Z</time></trkpt>
      <trkpt lon="13.413695" lat="52.513278"><ele>137.1</ele><time>2024-01-01T08:24:40.000Z</time></trkpt>
      <trkpt lon="13.413698" lat="52.513294"><ele>137.2</ele><time>2024-01-01T08:24:41.000Z</time></trkpt>
      <trkpt lon="13.413693" lat="52.513307"><ele>136.8</ele><time>2024-01-01T08:24:42.000Z</time></trkpt>
      <trkpt lon="13.413684" lat="52.513319"><ele>136.2</ele><time>2024-01-01T08:24:43.000Z</time></trkpt>
      <trkpt lon="13.413674" lat="52.513332"><ele>136.3</ele><time>2024-01-01T08:24:44.000Z</time></trkpt>
      <trkpt lon="13.413664" lat="52.513346"><ele>136.6</ele><time>2024-01-01T08:24:45.000Z</time></trkpt>
      <trkpt lon="13.413657" lat="52.513361"><ele>137.2</ele><time>2024-01-01T08:24:46.000Z</time></trkpt>
      <trkpt lon="13.413654" lat="52.513376"><ele>137.2</ele><time>2024-01-01T08:24:47.000Z</time></trkpt>
      <trkpt lon="13.413650" lat="52.513393"><ele>137.5</ele><time>2024-01-01T08:24:48.000Z</time></trkpt>
      <trkpt lon="13.413650" lat="52.513412"><ele>137.7</ele><time>2024-01-01T08:24:49.000Z</time></trkpt>
      <trkpt lon="13.413642" lat="52.513427"><ele>137.7</ele><time>2024-01-01T08:24:50.000Z</time></trkpt>
      <trkpt lon="13.413636" lat="52.513442"><ele>137.6</ele><time>2024-01-01T08:24:51.000Z</time></trkpt>
      <trkpt lon="13.413631" lat="52.513457"><ele>137.6</ele><time>2024-01-01T08:24:52.000Z</time></trkpt>
      <trkpt lon="13.413627" lat="52.513473"><ele>137.8</ele><time>2024-01-01T08:24:53.000Z</time></trkpt>
      <trkpt lon="13.413624" lat="52.513489"><ele>138.2</ele><time>2024-01-01T08:24:54.000Z</time></trkpt>
      <trkpt lon="13.413617" lat="52.513506"><ele>138.9</ele><time>2024-01-01T08:24:55.000Z</time></trkpt>
      <trkpt lon="13.413618" lat="52.513522"><ele>138.9</ele><time>2024-01-01T08:24:56.000Z</time></trkpt>
      <trkpt lon="13.413609" lat="52.513537"><ele>139.2</ele><time>2024-01-01T08:24:57.000Z</time></trkpt>
      <trkpt lon="13.413608" lat="52.513553"><ele>138.9</ele><time>2024-01-01T08:24:58.000Z</time></trkpt>
      <trkpt lon="13.413609" lat="52.513570"><ele>138.9</ele><time>2024-01-01T08:24:59.000Z</time></trkpt>
      <trkpt lon="13.413608" lat="52.513585"><ele>138.9</ele><time>2024-01-01T08:25:00.000Z</time></trkpt>
      <trkpt lon="13.413608" lat="52.513600"><ele>139.1</ele><time>2024-01-01T08:25:01.000Z</time></trkpt>
      <trkpt lon="13.413608" lat="52.513614"><ele>139.1</ele><time>2024-01-01T08:25:02.000Z</time></trkpt>
      <trkpt lon="13.413606" lat="52.513631"><ele>138.8</ele><time>2024-01-01T08:25:03.000Z</time></trkpt>
      <trkpt lon="13.413601" lat="52.513644"><ele>138.8</ele><time>2024-01-01T08:25:04.000Z</time></trkpt>
      <trkpt lon="13.413600" lat="52.513661"><ele>139.2</ele><time>2024-01-01T08:25:05.000Z</time></trkpt>
      <trkpt lon="13.413593" lat="52.513676"><ele>139.6</ele><time>2024-01-01T08:25:06.000Z</time></trkpt>
      <trkpt lon="13.413590" lat="52.513691"><ele>139.6</ele><time>2024-01-01T08:25:07.000Z</time></trkpt>
      <trkpt lon="13.413587" lat="52.513706"><ele>139.8</ele><time>2024-01-01T08:25:08.000Z</time></trkpt>
      <trkpt lon="13.413578" lat="52.513721"><ele>140.1</ele><time>2024-01-01T08:25:09.000Z</time></trkpt>
      <trkpt lon="13.413575" lat="52.513740"><ele>140.2</ele><time>2024-01-01T08:25:10.000Z</time></trkpt>
      <trkpt lon="13.413572" lat="52.513758"><ele>140.0</ele><time>2024-01-01T08:25:11.000Z</time></trkpt>
      <trkpt lon="13.413567" lat="52.513774"><ele>140.5</ele><time>2024-01-01T08:25:12.000Z</time></trkpt>
      <trkpt lon="13.413563" lat="52.513789"><ele>140.1</ele><time>2024-01-01T08:25:13.000Z</time></trkpt>
      <trkpt lon="13.413557" lat="52.513803"><ele>140.9</ele><time>2024-01-01T08:25:14.000Z</time></trkpt>
      <trkpt lon="13.413555" lat="52.513819"><ele>140.9</ele><time>2024-01-01T08:25:15.000Z</time></trkpt>
      <trkpt lon="13.413555" lat="52.513838"><ele>140.6</ele><time>2024-01-01T08:25:16.000Z</time></trkpt>
      <trkpt lon="13.413548" lat="52.513851"><ele>139.9</ele><time>2024-01-01T08:25:17.000Z</time></trkpt>
      <trkpt lon="13.413557" lat="52.513870"><ele>139.4</ele><time>2024-01-01T08:25:18.000Z</time></trkpt>
      <trkpt lon="13.413558" lat="52.513886"><ele>139.9</ele><time>2024-01-01T08:25:19.000Z</time></trkpt>
      <trkpt lon="13.413575" lat="52.513904"><ele>139.8</ele><time>2024-01-01T08:25:20.000Z</time></trkpt>
      <trkpt lon="13.413586" lat="52.513920"><ele>139.8</ele><time>2024-01-01T08:25:21.000Z</time></trkpt>
      <trkpt lon="13.413590" lat="52.513938"><ele>139.4</ele><time>2024-01-01T08:25:22.000Z</time></trkpt>
      <trkpt lon="13.413597" lat="52.513954"><ele>138.8</ele><time>2024-01-01T08:25:23.000Z</time></trkpt>
      <trkpt lon="13.413597" lat="52.513970"><ele>138.3</ele><time>2024-01-01T08:25:24.000Z</time></trkpt>
      <trkpt lon="13.413585" lat="52.513985"><ele>138.7</ele><time>2024-01-01T08:25:25.000Z</time></trkpt>
      <trkpt lon="13.413577" lat="52.514000"><ele>138.9</ele><time>2024-01-01T08:25:26.000Z</time></trkpt>
      <trkpt lon="13.413575" lat="52.514015"><ele>138.6</ele><time>2024-01-01T08:25:27.000Z</time></trkpt>
      <trkpt lon="13.413571" lat="52.514030"><ele>138.8</ele><time>2024-01-01T08:25:28.000Z</time></trkpt>
      <trkpt lon="13.413569" lat="52.514043"><ele>138.5</ele><time>2024-01-01T08:25:29.000Z</time></trkpt>
      <trkpt lon="13.413565" lat="52.514056"><ele>138.3</ele><time>2024-01-01T08:25:30.000Z</time></trkpt>
      <trkpt lon="13.413561" lat="52.514071"><ele>138.8</ele><time>2024-01-01T08:25:31.000Z</time></trkpt>
      <trkpt lon="13.413559" lat="52.514086"><ele>138.8</ele><time>2024-01-01T08:25:32.000Z</time></trkpt>
      <trkpt lon="13.413552" lat="52.514098"><ele>138.6</ele><time>2024-01-01T08:25:33.000Z</time></trkpt>
      <trkpt lon="13.413541" lat="52.514112"><ele>139.0</ele><time>2024-01-01T08:25:34.000Z</time></trkpt>
      <trkpt lon="13.413524" lat="52.514125"><ele>139.7</ele><time>2024-01-01T08:25:35.000Z</time></trkpt>
      <trkpt lon="13.413522" lat="52.514140"><ele>139.6</ele><time>2024-01-01T08:25:36.000Z</time></trkpt>
      <trkpt lon="13.413518" lat="52.514154"><ele>139.3</ele><time>2024-01-01T08:25:37.000Z</time></trkpt>
      <trkpt lon="13.413515" lat="52.514168"><ele>138.5</ele><time>2024-01-01T08:25:38.000Z</time></trkpt>
      <trkpt lon="13.413507" lat="52.514182"><ele>138.4</ele><time>2024-01-01T08:25:39.000Z</time></trkpt>
      <trkpt lon="13.413497" lat="52.514196"><ele>138.7</ele><time>2024-01-01T08:25:40.000Z</time></trkpt>
      <trkpt lon="13.413485" lat="52.514209"><ele>138.4</ele><time>2024-01-01T08:25:41.000Z</time></trkpt>
      <trkpt lon="13.413473" lat="52.514221"><ele>138.5</ele><time>2024-01-01T08:25:42.000Z</time></trkpt>
      <trkpt lon="13.413465" lat="52.514234"><ele>139.0</ele><time>2024-01-01T08:25:43.000Z</time></trkpt>
      <trkpt lon="13.413458" lat="52.514249"><ele>138.5</ele><time>2024-01-01T08:25:44.000Z</time></trkpt>
      <trkpt lon="13.413460" lat="52.514267"><ele>138.5</ele><time>2024-01-01T08:25:45.000Z</time></trkpt>
      <trkpt lon="13.413455" lat="52.514283"><ele>139.4</ele><time>2024-01-01T08:25:46.000Z</time></trkpt>
      <trkpt lon="13.413452" lat="52.514297"><ele>140.0</ele><time>2024-01-01T08:25:47.000Z</time></trkpt>
      <trkpt lon="13.413445" lat="52.514313"><ele>140.2</ele><time>2024-01-01T08:25:48.000Z</time></trkpt>
      <trkpt lon="13.413434" lat="52.514326"><ele>139.7</ele><time>2024-01-01T08:25:49.000Z</time></trkpt>
      <trkpt lon="13.413431" lat="52.514342"><ele>140.1</ele><time>2024-01-01T08:25:50.000Z</time></trkpt>
      <trkpt lon="13.413433" lat="52.514358"><ele>140.0</ele><time>2024-01-01T08:25:51.000Z</time></trkpt>
      <trkpt lon="13.413426" lat="52.514371"><ele>139.9</ele><time>2024-01-01T08:25:52.000Z</time></trkpt>
      <trkpt lon="13.413418" lat="52.514385"><ele>140.3</ele><time>2024-01-01T08:25:53.000Z</time></trkpt>
      <trkpt lon="13.413407" lat="52.514400"><ele>140.0</ele><time>2024-01-01T08:25:54.000Z</time></trkpt>
      <trkpt lon="13.413413" lat="52.514420"><ele>139.8</ele><time>2024-01-01T08:25:55.000Z</time></trkpt>
      <trkpt lon="13.413423" lat="52.514437"><ele>139.8</ele><time>2024-01-01T08:25:56.000Z</time></trkpt>
      <trkpt lon="13.413420" lat="52.514454"><ele>139.7</ele><time>2024-01-01T08:25:57.000Z</time></trkpt>
      <trkpt lon="13.413414" lat="52.514471"><ele>139.4</ele><time>2024-01-01T08:25:58.000Z</time></trkpt>
      <trkpt lon="13.413413" lat="52.514488"><ele>138.7</ele><time>2024-01-01T08:25:59.000Z</time></trkpt>
      <trkpt lon="13.413421" lat="52.514507"><ele>138.0</ele><time>2024-01-01T08:26:00.000Z</time></trkpt>
      <trkpt lon="13.413427" lat="52.514524"><ele>137.9</ele><time>2024-01-01T08:26:01.000Z</time></trkpt>
      <trkpt lon="13.413427" lat="52.514543"><ele>138.0</ele><time>2024-01-01T08:26:02.000Z</time></trkpt>
      <trkpt lon="13.413429" lat="52.514562"><ele>137.5</ele><time>2024-01-01T08:26:03.000Z</time></trkpt>
      <trkpt lon="13.413436" lat="52.514579"><ele>136.7</ele><time>2024-01-01T08:26:04.000Z</time></trkpt>
      <trkpt lon="13.413436" lat="52.514599"><ele>136.9</ele><time>2024-01-01T08:26:05.000Z</time></trkpt>
      <trkpt lon="13.413442" lat="52.514617"><ele>136.9</ele><time>2024-01-01T08:26:06.000Z</time></trkpt>
      <trkpt lon="13.413446" lat="52.514635"><ele>136.6</ele><time>2024-01-01T08:26:07.000Z</time></trkpt>
      <trkpt lon="13.413439" lat="52.514652"><ele>135.9</ele><time>2024-01-01T08:26:08.000Z</time></trkpt>
      <trkpt lon="13.413431" lat="52.514668"><ele>136.4</ele><time>2024-01-01T08:26:09.000Z</time></trkpt>
      <trkpt lon="13.413425" lat="52.514683"><ele>135.8</ele><time>2024-01-01T08:26:10.000Z</time></trkpt>
      <trkpt lon="13.413421" lat="52.514699"><ele>136.1</ele><time>2024-01-01T08:26:11.000Z</time></trkpt>
      <trkpt lon="13.413417" lat="52.514713"><ele>136.3</ele><time>2024-01-01T08:26:12.000Z</time></trkpt>
      <trkpt lon="13.413417" lat="52.514732"><ele>135.7</ele><time>2024-01-01T08:26:13.000Z</time></trkpt>
      <trkpt lon="13.413411" lat="52.514749"><ele>135.4</ele><time>2024-01-01T08:26:14.000Z</time></trkpt>
      <trkpt lon="13.413404" lat="52.514766"><ele>135.9</ele><time>2024-01-01T08:26:15.000Z</time></trkpt>
      <trkpt lon="13.413394" lat="52.514777"><ele>135.7</ele><time>2024-01-01T08:26:16.000Z</time></trkpt>
      <trkpt lon="13.413377" lat="52.514785"><ele>136.0</ele><time>2024-01-01T08:26:17.000Z</time></trkpt>
      <trkpt lon="13.413359" lat="52.514796"><ele>135.9</ele><time>2024-01-01T08:26:18.000Z</time></trkpt>
      <trkpt lon="13.413349" lat="52.514812"><ele>136.5</ele><time>2024-01-01T08:26:19.000Z</time></trkpt>
      <trkpt lon="13.413346" lat="52.514830"><ele>137.2</ele><time>2024-01-01T08:26:20.000Z</time></trkpt>
      <trkpt lon="13.413345" lat="52.514847"><ele>137.4</ele><time>2024-01-01T08:26:21.000Z</time></trkpt>
      <trkpt lon="13.413340" lat="52.514863"><ele>137.5</ele><time>2024-01-01T08:26:22.000Z</time></trkpt>
      <trkpt lon="13.413336" lat="52.514880"><ele>137.1</ele><time>2024-01-01T08:26:23.000Z</time></trkpt>
      <trkpt lon="13.413334" lat="52.514896"><ele>136.6</ele><time>2024-01-01T08:26:24.000Z</time></trkpt>
      <trkpt lon="13.413327" lat="52.514914"><ele>136.0</ele><time>2024-01-01T08:26:25.000Z</time></trkpt>
      <trkpt lon="13.413318" lat="52.514931"><ele>136.6</ele><time>2024-01-01T08:26:26.000Z</time></trkpt>
      <trkpt lon="13.413315" lat="52.514948"><ele>137.9</ele><time>2024-01-01T08:26:27.000Z</time></trkpt>
      <trkpt lon="13.413311" lat="52.514963"><ele>138.3</ele><time>2024-01-01T08:26:28.000Z</time></trkpt>
      <trkpt lon="13.413305" lat="52.514979"><ele>138.3</ele><time>2024-01-01T08:26:29.000Z</time></trkpt>
      <trkpt lon="13.413303" lat="52.514996"><ele>138.6</ele><time>2024-01-01T08:26:30.000Z</time></trkpt>
      <trkpt lon="13.413298" lat="52.515014"><ele>138.8</ele><time>2024-01-01T08:26:31.000Z</time></trkpt>
      <trkpt lon="13.413293" lat="52.515029"><ele>138.7</ele><time>2024-01-01T08:26:32.000Z</time></trkpt>
      <trkpt lon="13.413291" lat="52.515046"><ele>138.5</ele><time>2024-01-01T08:26:33.000Z</time></trkpt>
      <trkpt lon="13.413283" lat="52.515062"><ele>139.0</ele><time>2024-01-01T08:26:34.000Z</time></trkpt>
      <trkpt lon="13.413281" lat="52.515078"><ele>138.9</ele><time>2024-01-01T08:26:35.000Z</time></trkpt>
      <trkpt lon="13.413278" lat="52.515094"><ele>139.0</ele><time>2024-01-01T08:26:36.000Z</time></trkpt>
      <trkpt lon="13.413270" lat="52.515111"><ele>138.8</ele><time>2024-01-01T08:26:37.000Z</time></trkpt>
      <trkpt lon="13.413263" lat="52.515126"><ele>138.4</ele><time>2024-01-01T08:26:38.000Z</time></trkpt>
      <trkpt lon="13.413257" lat="52.515143"><ele>138.5</ele><time>2024-01-01T08:26:39.000Z</time></trkpt>
      <trkpt lon="13.413254" lat="52.515158"><ele>138.4</ele><time>2024-01-01T08:26:40.000Z</time></trkpt>
      <trkpt lon="13.413252" lat="52.515174"><ele>138.5</ele><time>2024-01-01T08:26:41.000Z</time></trkpt>
      <trkpt lon="13.413248" lat="52.515188"><ele>139.1</ele><time>2024-01-01T08:26:42.000Z</time></trkpt>
      <trkpt lon="13.413237" lat="52.515202"><ele>139.3</ele><time>2024-01-01T08:26:43.000Z</time></trkpt>
    </trkseg>
  </trk>
</gpx>
